{
    "links": {
        "self": "http://www.neowsapp.com/rest/v1/neo/3732125?api_key=iIulBulltgU6a56xZRHN4H3l9WmuAYTsLGpBGhQ2"
    },
    "id": "3732125",
    "neo_reference_id": "3732125",
    "name": "(2015 UT51)",
    "designation": "2015 UT51",
    "nasa_jpl_url": "http://ssd.jpl.nasa.gov/sbdb.cgi?sstr=3732125",
    "absolute_magnitude_h": 22.9,
    "estimated_diameter": {
        "kilometers": {
            "estimated_diameter_min": 0.0699125232,
            "estimated_diameter_max": 0.1563291544
        },
        "meters": {
            "estimated_diameter_min": 69.9125232246,
            "estimated_diameter_max": 156.3291544087
        },
        "miles": {
            "estimated_diameter_min": 0.0434416145,
            "estimated_diameter_max": 0.097138403
        },
        "feet": {
            "estimated_diameter_min": 229.3718026961,
            "estimated_diameter_max": 512.8909429502
        }
    },
    "is_potentially_hazardous_asteroid": false,
    "close_approach_data": [
        {
            "close_approach_date": "2015-10-11",
            "close_approach_date_full": "2015-Oct-11 17:02",
            "epoch_date_close_approach": 1444582920000,
            "relative_velocity": {
                "kilometers_per_second": "13.9139836473",
                "kilometers_per_hour": "50090.341130293",
                "miles_per_hour": "31124.1900206534"
            },
            "miss_distance": {
                "astronomical": "0.2324608421",
                "lunar": "90.4272675769",
                "kilometers": "34775646.836566327",
                "miles": "21608584.9408442326"
            },
            "orbiting_body": "Earth"
        },
        {
            "close_approach_date": "2028-10-14",
            "close_approach_date_full": "2028-Oct-14 21:07",
            "epoch_date_close_approach": 1855170420000,
            "relative_velocity": {
                "kilometers_per_second": "12.940776747",
                "kilometers_per_hour": "46586.7962892572",
                "miles_per_hour": "28947.2235053999"
            },
            "miss_distance": {
                "astronomical": "0.2517960502",
                "lunar": "97.9486635278",
                "kilometers": "37668152.784333074",
                "miles": "23405904.7939574612"
            },
            "orbiting_body": "Earth"
        }
    ],
    "orbital_data": {
        "orbit_id": "5",
        "orbit_determination_date": "2017-04-06 08:31:08",
        "first_observation_date": "2015-10-13",
        "last_observation_date": "2015-11-05",
        "data_arc_in_days": 23,
        "observations_used": 15,
        "orbit_uncertainty": "7",
        "minimum_orbit_intersection": ".157042",
        "jupiter_tisserand_invariant": "4.085",
        "epoch_osculation": "2459000.5",
        "eccentricity": ".3196232014633104",
        "semi_major_axis": "1.679428877806495",
        "inclination": "23.60707934280456",
        "ascending_node_longitude": "197.5847097760014",
        "orbital_period": "794.9519002052118",
        "perihelion_distance": "1.142644443252048",
        "perihelion_argument": "198.1890082640484",
        "aphelion_distance": "2.216213312360942",
        "perihelion_time": "2458906.195962829482",
        "mean_anomaly": "42.70629879949032",
        "mean_motion": ".4528575878704966",
        "equinox": "J2000",
        "orbit_class": {
            "orbit_class_type": "AMO",
            "orbit_class_description": "Near-Earth asteroid orbits similar to that of 1221 Amor",
            "orbit_class_range": "1.017 AU < q (perihelion) < 1.3 AU"
        }
    },
    "is_sentry_object": false
}